[{"OBJECT_NAME":"STARLINK-2569","OBJECT_ID":"2021-036B","EPOCH":"2026-03-10T00:00:02.999808","MEAN_MOTION":15.23820477,"ECCENTRICITY":0.00017097,"INCLINATION":53.129,"RA_OF_ASC_NODE":9.5309,"ARG_OF_PERICENTER":96.8785,"MEAN_ANOMALY":250.7742,"EPHEMERIS_TYPE":0,"CLASSIFICATION_TYPE":"U","NORAD_CAT_ID":48277,"ELEMENT_SET_NO":999,"REV_AT_EPOCH":574,"BSTAR":-0.0006504466,"MEAN_MOTION_DOT":-0.00016175,"MEAN_MOTION_DDOT":0},{"OBJECT_NAME":"SUPERVIEW NEO-3 01","OBJECT_ID":"2024-072A","EPOCH":"2026-03-09T22:59:09.446208","MEAN_MOTION":15.23128449,"ECCENTRICITY":0.00029396,"INCLINATION":97.4184,"RA_OF_ASC_NODE":150.1524,"ARG_OF_PERICENTER":104.5976,"MEAN_ANOMALY":255.5587,"EPHEMERIS_TYPE":0,"CLASSIFICATION_TYPE":"U","NORAD_CAT_ID":59510,"ELEMENT_SET_NO":999,"REV_AT_EPOCH":10559,"BSTAR":0.00057697543,"MEAN_MOTION_DOT":0.00013563,"MEAN_MOTION_DDOT":0}]
